{"type": "FeatureCollection", "features": [ {"type": "Feature", "properties": {"norad_id": 36442, "name": "COSMOS 2251 DEB", "group": "cosmos-2251-debris", "lat": -73.82426666688562, "lon": -72.11227929199107, "alt_km": 466.68519838137854, "timestamp": "2025-12-25T22:42:17.410417+00:00", "meta": {"OBJECT_NAME": "COSMOS 2251 DEB", "OBJECT_ID": "1993-036BAR", "EPOCH": "2025-12-21T18:51:31.867200", "MEAN_MOTION": 15.32486394, "ECCENTRICITY": 0.00080169, "INCLINATION": 73.9482, "RA_OF_ASC_NODE": 19.8637, "ARG_OF_PERICENTER": 316.0651, "MEAN_ANOMALY": 43.9914, "EPHEMERIS_TYPE": 0, "CLASSIFICATION_TYPE": "U", "NORAD_CAT_ID": 36442, "ELEMENT_SET_NO": 999, "REV_AT_EPOCH": 86054, "BSTAR": 0.0050536247, "MEAN_MOTION_DOT": 0.00162161, "MEAN_MOTION_DDOT": 0}, "tle": {"line1": "1 36442U 93036BAR 25355.78578550  .00162161  00000+0  50536-2 0  9992", "line2": "2 36442  73.9482  19.8637 0008016 316.0651  43.9914 15.32486394860543"}}, "geometry": {"type": "Point", "coordinates": [-72.11227929199107, -73.82426666688562]}}, {"type": "Feature", "properties": {"norad_id": 36451, "name": "COSMOS 2251 DEB", "group": "cosmos-2251-debris", "lat": -2.7135039029709245, "lon": 132.30460752782815, "alt_km": 745.4755276857131, "timestamp": "2025-12-25T22:42:17.410427+00:00", "meta": {"OBJECT_NAME": "COSMOS 2251 DEB", "OBJECT_ID": "1993-036BBA", "EPOCH": "2025-12-17T15:51:47.903904", "MEAN_MOTION": 14.18761243, "ECCENTRICITY": 0.01833733, "INCLINATION": 73.9538, "RA_OF_ASC_NODE": 326.3887, "ARG_OF_PERICENTER": 149.6881, "MEAN_ANOMALY": 211.5024, "EPHEMERIS_TYPE": 0, "CLASSIFICATION_TYPE": "U", "NORAD_CAT_ID": 36451, "ELEMENT_SET_NO": 999, "REV_AT_EPOCH": 84295, "BSTAR": 0.0004725236, "MEAN_MOTION_DOT": 1.135e-05, "MEAN_MOTION_DDOT": 0}, "tle": {"line1": "1 36451U 93036BBA 25351.66097111  .00001135  00000+0  47252-3 0  9999", "line2": "2 36451  73.9538 326.3887 0183373 149.6881 211.5024 14.18761243842955"}}, "geometry": {"type": "Point", "coordinates": [132.30460752782815, -2.7135039029709245]}}, {"type": "Feature", "properties": {"norad_id": 36453, "name": "COSMOS 2251 DEB", "group": "cosmos-2251-debris", "lat": -60.06049784217449, "lon": -22.642137814238442, "alt_km": 763.3808596568288, "timestamp": "2025-12-25T22:42:17.410437+00:00", "meta": {"OBJECT_NAME": "COSMOS 2251 DEB", "OBJECT_ID": "1993-036BBC", "EPOCH": "2025-12-24T15:52:54.435360", "MEAN_MOTION": 14.52685081, "ECCENTRICITY": 0.00706677, "INCLINATION": 73.9241, "RA_OF_ASC_NODE": 129.7501, "ARG_OF_PERICENTER": 29.7309, "MEAN_ANOMALY": 341.3832, "EPHEMERIS_TYPE": 0, "CLASSIFICATION_TYPE": "U", "NORAD_CAT_ID": 36453, "ELEMENT_SET_NO": 999, "REV_AT_EPOCH": 84641, "BSTAR": 0.00085702577, "MEAN_MOTION_DOT": 3.602e-05, "MEAN_MOTION_DDOT": 0}, "tle": {"line1": "1 36453U 93036BBC 25358.66174115  .00003602  00000+0  85703-3 0  9992", "line2": "2 36453  73.9241 129.7501 0070667  29.7309 341.3832 14.52685081846417"}}, "geometry": {"type": "Point", "coordinates": [-22.642137814238442, -60.06049784217449]}}, {"type": "Feature", "properties": {"norad_id": 36459, "name": "COSMOS 2251 DEB", "group": "cosmos-2251-debris", "lat": -2.8017868479073975, "lon": -24.863952544305192, "alt_km": 779.2717166426355, "timestamp": "2025-12-25T22:42:17.410447+00:00", "meta": {"OBJECT_NAME": "COSMOS 2251 DEB", "OBJECT_ID": "1993-036BBJ", "EPOCH": "2025-12-20T06:23:01.272480", "MEAN_MOTION": 14.26454896, "ECCENTRICITY": 0.0113312, "INCLINATION": 74.0464, "RA_OF_ASC_NODE": 346.1968, "ARG_OF_PERICENTER": 79.9168, "MEAN_ANOMALY": 281.4741, "EPHEMERIS_TYPE": 0, "CLASSIFICATION_TYPE": "U", "NORAD_CAT_ID": 36459, "ELEMENT_SET_NO": 999, "REV_AT_EPOCH": 7989, "BSTAR": 0.00092616994, "MEAN_MOTION_DOT": 2.362e-05, "MEAN_MOTION_DDOT": 0}, "tle": {"line1": "1 36459U 93036BBJ 25354.26598695  .00002362  00000+0  92617-3 0  9997", "line2": "2 36459  74.0464 346.1968 0113312  79.9168 281.4741 14.26454896 79891"}}, "geometry": {"type": "Point", "coordinates": [-24.863952544305192, -2.8017868479073975]}}, {"type": "Feature", "properties": {"norad_id": 36470, "name": "COSMOS 2251 DEB", "group": "cosmos-2251-debris", "lat": -51.22440601043543, "lon": -154.2216459821824, "alt_km": 552.7443744812899, "timestamp": "2025-12-25T22:42:17.410457+00:00", "meta": {"OBJECT_NAME": "COSMOS 2251 DEB", "OBJECT_ID": "1993-036BBV", "EPOCH": "2025-12-15T00:13:00.014016", "MEAN_MOTION": 15.07582269, "ECCENTRICITY": 0.00222568, "INCLINATION": 73.8449, "RA_OF_ASC_NODE": 249.6845, "ARG_OF_PERICENTER": 78.1368, "MEAN_ANOMALY": 282.2316, "EPHEMERIS_TYPE": 0, "CLASSIFICATION_TYPE": "U", "NORAD_CAT_ID": 36470, "ELEMENT_SET_NO": 999, "REV_AT_EPOCH": 66128, "BSTAR": 0.0018721064, "MEAN_MOTION_DOT": 0.0002872, "MEAN_MOTION_DDOT": 0}, "tle": {"line1": "1 36470U 93036BBV 25349.00902794  .00028720  00000+0  18721-2 0  9994", "line2": "2 36470  73.8449 249.6845 0022256  78.1368 282.2316 15.07582269661287"}}, "geometry": {"type": "Point", "coordinates": [-154.2216459821824, -51.22440601043543]}}, {"type": "Feature", "properties": {"norad_id": 36528, "name": "COSMOS 2251 DEB", "group": "cosmos-2251-debris", "lat": -44.39765390553889, "lon": 104.85550515926532, "alt_km": 845.3334328164092, "timestamp": "2025-12-25T22:42:17.410466+00:00", "meta": {"OBJECT_NAME": "COSMOS 2251 DEB", "OBJECT_ID": "1993-036BCN", "EPOCH": "2025-12-25T14:32:07.404000", "MEAN_MOTION": 14.30715983, "ECCENTRICITY": 0.0084121, "INCLINATION": 74.0177, "RA_OF_ASC_NODE": 121.7735, "ARG_OF_PERICENTER": 168.3638, "MEAN_ANOMALY": 191.9483, "EPHEMERIS_TYPE": 0, "CLASSIFICATION_TYPE": "U", "NORAD_CAT_ID": 36528, "ELEMENT_SET_NO": 999, "REV_AT_EPOCH": 64611, "BSTAR": 0.0012336, "MEAN_MOTION_DOT": 3.33e-05, "MEAN_MOTION_DDOT": 0}, "tle": {"line1": "1 36528U 93036BCN 25359.60564125  .00003330  00000+0  12336-2 0  9993", "line2": "2 36528  74.0177 121.7735 0084121 168.3638 191.9483 14.30715983646113"}}, "geometry": {"type": "Point", "coordinates": [104.85550515926532, -44.39765390553889]}}, {"type": "Feature", "properties": {"norad_id": 36533, "name": "COSMOS 2251 DEB", "group": "cosmos-2251-debris", "lat": -55.277106803686245, "lon": 65.56042503056152, "alt_km": 717.589589874, "timestamp": "2025-12-25T22:42:17.410476+00:00", "meta": {"OBJECT_NAME": "COSMOS 2251 DEB", "OBJECT_ID": "1993-036BCT", "EPOCH": "2025-12-24T23:47:29.202144", "MEAN_MOTION": 14.49859831, "ECCENTRICITY": 0.00492005, "INCLINATION": 74.0122, "RA_OF_ASC_NODE": 91.7921, "ARG_OF_PERICENTER": 238.8301, "MEAN_ANOMALY": 120.8031, "EPHEMERIS_TYPE": 0, "CLASSIFICATION_TYPE": "U", "NORAD_CAT_ID": 36533, "ELEMENT_SET_NO": 999, "REV_AT_EPOCH": 84662, "BSTAR": 0.00052465602, "MEAN_MOTION_DOT": 2.029e-05, "MEAN_MOTION_DDOT": 0}, "tle": {"line1": "1 36533U 93036BCT 25358.99131021  .00002029  00000+0  52466-3 0  9998", "line2": "2 36533  74.0122  91.7921 0049200 238.8301 120.8031 14.49859831846620"}}, "geometry": {"type": "Point", "coordinates": [65.56042503056152, -55.277106803686245]}}, {"type": "Feature", "properties": {"norad_id": 36539, "name": "COSMOS 2251 DEB", "group": "cosmos-2251-debris", "lat": -50.81959782017562, "lon": -129.43336609969975, "alt_km": 692.7300703755236, "timestamp": "2025-12-25T22:42:17.410487+00:00", "meta": {"OBJECT_NAME": "COSMOS 2251 DEB", "OBJECT_ID": "1993-036BCZ", "EPOCH": "2025-12-25T11:46:03.342144", "MEAN_MOTION": 14.59375412, "ECCENTRICITY": 0.002634, "INCLINATION": 74.023, "RA_OF_ASC_NODE": 30.8548, "ARG_OF_PERICENTER": 173.4832, "MEAN_ANOMALY": 186.6682, "EPHEMERIS_TYPE": 0, "CLASSIFICATION_TYPE": "U", "NORAD_CAT_ID": 36539, "ELEMENT_SET_NO": 999, "REV_AT_EPOCH": 84133, "BSTAR": 0.00061651, "MEAN_MOTION_DOT": 2.904e-05, "MEAN_MOTION_DDOT": 0}, "tle": {"line1": "1 36539U 93036BCZ 25359.49031646  .00002904  00000+0  61651-3 0  9990", "line2": "2 36539  74.0230  30.8548 0026340 173.4832 186.6682 14.59375412841332"}}, "geometry": {"type": "Point", "coordinates": [-129.43336609969975, -50.81959782017562]}}, {"type": "Feature", "properties": {"norad_id": 36540, "name": "COSMOS 2251 DEB", "group": "cosmos-2251-debris", "lat": 21.75195891525494, "lon": -31.19739331271623, "alt_km": 693.2072042414002, "timestamp": "2025-12-25T22:42:17.410496+00:00", "meta": {"OBJECT_NAME": "COSMOS 2251 DEB", "OBJECT_ID": "1993-036BDA", "EPOCH": "2025-12-25T03:52:41.939328", "MEAN_MOTION": 14.58601922, "ECCENTRICITY": 0.0014584, "INCLINATION": 74.0281, "RA_OF_ASC_NODE": 156.858, "ARG_OF_PERICENTER": 226.8256, "MEAN_ANOMALY": 133.1691, "EPHEMERIS_TYPE": 0, "CLASSIFICATION_TYPE": "U", "NORAD_CAT_ID": 36540, "ELEMENT_SET_NO": 999, "REV_AT_EPOCH": 86191, "BSTAR": 0.0012972, "MEAN_MOTION_DOT": 6.023e-05, "MEAN_MOTION_DDOT": 0}, "tle": {"line1": "1 36540U 93036BDA 25359.16159652  .00006023  00000+0  12972-2 0  9991", "line2": "2 36540  74.0281 156.8580 0014584 226.8256 133.1691 14.58601922861915"}}, "geometry": {"type": "Point", "coordinates": [-31.19739331271623, 21.75195891525494]}}, {"type": "Feature", "properties": {"norad_id": 36550, "name": "COSMOS 2251 DEB", "group": "cosmos-2251-debris", "lat": -47.17008300278293, "lon": 150.87780995250048, "alt_km": 810.721546336883, "timestamp": "2025-12-25T22:42:17.410507+00:00", "meta": {"OBJECT_NAME": "COSMOS 2251 DEB", "OBJECT_ID": "1993-036BDL", "EPOCH": "2025-12-23T05:19:51.847104", "MEAN_MOTION": 14.27229725, "ECCENTRICITY": 0.00778519, "INCLINATION": 74.0443, "RA_OF_ASC_NODE": 173.7801, "ARG_OF_PERICENTER": 222.1192, "MEAN_ANOMALY": 137.3958, "EPHEMERIS_TYPE": 0, "CLASSIFICATION_TYPE": "U", "NORAD_CAT_ID": 36550, "ELEMENT_SET_NO": 999, "REV_AT_EPOCH": 84745, "BSTAR": 0.00062346046, "MEAN_MOTION_DOT": 1.548e-05, "MEAN_MOTION_DDOT": 0}, "tle": {"line1": "1 36550U 93036BDL 25357.22212786  .00001548  00000+0  62346-3 0  9993", "line2": "2 36550  74.0443 173.7801 0077851 222.1192 137.3958 14.27229725847452"}}, "geometry": {"type": "Point", "coordinates": [150.87780995250048, -47.17008300278293]}}]}